0 FENGYUN 1C DEB
1 32245U 99025CWT 13280.61416541  .00001656  00000-0  45531-3 0  4368
2 32245 098.6200 340.3644 0169632 186.6581 173.2353 14.40212339329152
0 FENGYUN 1C DEB
1 32245U 99025CWT 13285.61636523  .00002362  00000-0  64277-3 0  4382
2 32245 098.6207 345.4036 0169931 171.9536 188.4441 14.40240547329865
0 FENGYUN 1C DEB
1 32245U 99025CWT 13285.61637861  .00001820  00000-0  49956-3 0  4372
2 32245 098.6224 345.3996 0169003 171.9868 188.4624 14.40229170329879
0 FENGYUN 1C DEB
1 32245U 99025CWT 13293.11945968  .00003788  00000-0  10211-2 0  4394
2 32245 098.6202 352.9646 0169949 149.6019 211.5157 14.40285265330957
